{"type": "FeatureCollection", "features": [ {"type": "Feature", "properties": {"norad_id": 66500, "name": "STARLINK-35894", "group": "last-30-days", "lat": 36.96292873850927, "lon": -136.95785063401493, "alt_km": 378.9194857893963, "timestamp": "2025-12-05T05:43:13.896502+00:00", "meta": {"OBJECT_NAME": "STARLINK-35894", "OBJECT_ID": "2025-263R", "EPOCH": "2025-12-04T18:00:02.000160", "MEAN_MOTION": 15.6400684, "ECCENTRICITY": 0.0001096, "INCLINATION": 42.9987, "RA_OF_ASC_NODE": 172.0872, "ARG_OF_PERICENTER": 266.8038, "MEAN_ANOMALY": 284.6438, "EPHEMERIS_TYPE": 0, "CLASSIFICATION_TYPE": "U", "NORAD_CAT_ID": 66500, "ELEMENT_SET_NO": 999, "REV_AT_EPOCH": 435, "BSTAR": -0.029592, "MEAN_MOTION_DOT": -0.02503403, "MEAN_MOTION_DDOT": 0}, "tle": {"line1": "1 66500U 25263R   25338.75002315 -.02503403  00000+0 -29592-1 0  9995", "line2": "2 66500  42.9987 172.0872 0001096 266.8038 284.6438 15.64006840  4355"}}, "geometry": {"type": "Point", "coordinates": [-136.95785063401493, 36.96292873850927]}}, {"type": "Feature", "properties": {"norad_id": 66501, "name": "STARLINK-35897", "group": "last-30-days", "lat": 41.6043286219689, "lon": -118.50169674060895, "alt_km": 371.0482387402626, "timestamp": "2025-12-05T05:43:13.896512+00:00", "meta": {"OBJECT_NAME": "STARLINK-35897", "OBJECT_ID": "2025-263S", "EPOCH": "2025-12-04T18:00:02.000160", "MEAN_MOTION": 15.66052401, "ECCENTRICITY": 0.0001301, "INCLINATION": 42.9988, "RA_OF_ASC_NODE": 172.0597, "ARG_OF_PERICENTER": 268.0368, "MEAN_ANOMALY": 294.3519, "EPHEMERIS_TYPE": 0, "CLASSIFICATION_TYPE": "U", "NORAD_CAT_ID": 66501, "ELEMENT_SET_NO": 999, "REV_AT_EPOCH": 435, "BSTAR": -0.021979, "MEAN_MOTION_DOT": -0.02033359, "MEAN_MOTION_DDOT": 0}, "tle": {"line1": "1 66501U 25263S   25338.75002315 -.02033359  00000+0 -21979-1 0  9995", "line2": "2 66501  42.9988 172.0597 0001301 268.0368 294.3519 15.66052401  4354"}}, "geometry": {"type": "Point", "coordinates": [-118.50169674060895, 41.6043286219689]}}, {"type": "Feature", "properties": {"norad_id": 66502, "name": "STARLINK-35922", "group": "last-30-days", "lat": 42.54190431279415, "lon": -110.86296614240084, "alt_km": 370.9504603077121, "timestamp": "2025-12-05T05:43:13.896522+00:00", "meta": {"OBJECT_NAME": "STARLINK-35922", "OBJECT_ID": "2025-263T", "EPOCH": "2025-12-04T18:00:02.000160", "MEAN_MOTION": 15.6605257, "ECCENTRICITY": 0.0001308, "INCLINATION": 42.9988, "RA_OF_ASC_NODE": 172.0448, "ARG_OF_PERICENTER": 264.5199, "MEAN_ANOMALY": 303.619, "EPHEMERIS_TYPE": 0, "CLASSIFICATION_TYPE": "U", "NORAD_CAT_ID": 66502, "ELEMENT_SET_NO": 999, "REV_AT_EPOCH": 435, "BSTAR": -0.021968, "MEAN_MOTION_DOT": -0.0203245, "MEAN_MOTION_DDOT": 0}, "tle": {"line1": "1 66502U 25263T   25338.75002315 -.02032450  00000+0 -21968-1 0  9995", "line2": "2 66502  42.9988 172.0448 0001308 264.5199 303.6190 15.66052570  4356"}}, "geometry": {"type": "Point", "coordinates": [-110.86296614240084, 42.54190431279415]}}, {"type": "Feature", "properties": {"norad_id": 66503, "name": "STARLINK-35917", "group": "last-30-days", "lat": 42.88043559310228, "lon": -105.62354094794755, "alt_km": 370.85604298381077, "timestamp": "2025-12-05T05:43:13.896534+00:00", "meta": {"OBJECT_NAME": "STARLINK-35917", "OBJECT_ID": "2025-263U", "EPOCH": "2025-12-04T14:00:01.000224", "MEAN_MOTION": 15.66776021, "ECCENTRICITY": 0.00016475, "INCLINATION": 42.9989, "RA_OF_ASC_NODE": 173.0316, "ARG_OF_PERICENTER": 263.7801, "MEAN_ANOMALY": 87.1527, "EPHEMERIS_TYPE": 0, "CLASSIFICATION_TYPE": "U", "NORAD_CAT_ID": 66503, "ELEMENT_SET_NO": 999, "REV_AT_EPOCH": 432, "BSTAR": -0.021075696, "MEAN_MOTION_DOT": -0.02011641, "MEAN_MOTION_DDOT": 0}, "tle": {"line1": "1 66503U 25263U   25338.58334491 -.02011641  00000+0 -21076-1 0  9999", "line2": "2 66503  42.9989 173.0316 0001647 263.7801  87.1527 15.66776021  4329"}}, "geometry": {"type": "Point", "coordinates": [-105.62354094794755, 42.88043559310228]}}, {"type": "Feature", "properties": {"norad_id": 66504, "name": "STARLINK-35916", "group": "last-30-days", "lat": 32.80543009994653, "lon": -53.864946610053, "alt_km": 418.7219984314215, "timestamp": "2025-12-05T05:43:13.896544+00:00", "meta": {"OBJECT_NAME": "STARLINK-35916", "OBJECT_ID": "2025-263V", "EPOCH": "2025-12-04T18:00:02.000160", "MEAN_MOTION": 15.49994097, "ECCENTRICITY": 0.0001375, "INCLINATION": 42.9986, "RA_OF_ASC_NODE": 172.7549, "ARG_OF_PERICENTER": 260.6578, "MEAN_ANOMALY": 20.4416, "EPHEMERIS_TYPE": 0, "CLASSIFICATION_TYPE": "U", "NORAD_CAT_ID": 66504, "ELEMENT_SET_NO": 999, "REV_AT_EPOCH": 435, "BSTAR": -0.039761, "MEAN_MOTION_DOT": -0.02036083, "MEAN_MOTION_DDOT": 0}, "tle": {"line1": "1 66504U 25263V   25338.75002315 -.02036083  00000+0 -39761-1 0  9993", "line2": "2 66504  42.9986 172.7549 0001375 260.6578  20.4416 15.49994097  4352"}}, "geometry": {"type": "Point", "coordinates": [-53.864946610053, 32.80543009994653]}}, {"type": "Feature", "properties": {"norad_id": 66505, "name": "STARLINK-34766", "group": "last-30-days", "lat": 41.97286589080829, "lon": -115.98347790381106, "alt_km": 371.02142871066644, "timestamp": "2025-12-05T05:43:13.896557+00:00", "meta": {"OBJECT_NAME": "STARLINK-34766", "OBJECT_ID": "2025-263W", "EPOCH": "2025-12-04T18:00:02.000160", "MEAN_MOTION": 15.66049999, "ECCENTRICITY": 0.0001296, "INCLINATION": 42.9987, "RA_OF_ASC_NODE": 172.0543, "ARG_OF_PERICENTER": 261.8789, "MEAN_ANOMALY": 302.4267, "EPHEMERIS_TYPE": 0, "CLASSIFICATION_TYPE": "U", "NORAD_CAT_ID": 66505, "ELEMENT_SET_NO": 999, "REV_AT_EPOCH": 435, "BSTAR": -0.02192, "MEAN_MOTION_DOT": -0.02028366, "MEAN_MOTION_DDOT": 0}, "tle": {"line1": "1 66505U 25263W   25338.75002315 -.02028366  00000+0 -21920-1 0  9997", "line2": "2 66505  42.9987 172.0543 0001296 261.8789 302.4267 15.66049999  4358"}}, "geometry": {"type": "Point", "coordinates": [-115.98347790381106, 41.97286589080829]}}, {"type": "Feature", "properties": {"norad_id": 66506, "name": "STARLINK-34765", "group": "last-30-days", "lat": 42.28593555099153, "lon": -113.43402424967412, "alt_km": 370.93825871736226, "timestamp": "2025-12-05T05:43:13.896567+00:00", "meta": {"OBJECT_NAME": "STARLINK-34765", "OBJECT_ID": "2025-263X", "EPOCH": "2025-12-04T18:00:02.000160", "MEAN_MOTION": 15.66050278, "ECCENTRICITY": 0.0001237, "INCLINATION": 42.9987, "RA_OF_ASC_NODE": 172.0502, "ARG_OF_PERICENTER": 261.8615, "MEAN_ANOMALY": 304.3619, "EPHEMERIS_TYPE": 0, "CLASSIFICATION_TYPE": "U", "NORAD_CAT_ID": 66506, "ELEMENT_SET_NO": 999, "REV_AT_EPOCH": 435, "BSTAR": -0.02193, "MEAN_MOTION_DOT": -0.0202919, "MEAN_MOTION_DDOT": 0}, "tle": {"line1": "1 66506U 25263X   25338.75002315 -.02029190  00000+0 -21930-1 0  9995", "line2": "2 66506  42.9987 172.0502 0001237 261.8615 304.3619 15.66050278  4351"}}, "geometry": {"type": "Point", "coordinates": [-113.43402424967412, 42.28593555099153]}}, {"type": "Feature", "properties": {"norad_id": 66507, "name": "STARLINK-34767", "group": "last-30-days", "lat": 42.73950222708181, "lon": -108.27341195430107, "alt_km": 370.910781335353, "timestamp": "2025-12-05T05:43:13.896576+00:00", "meta": {"OBJECT_NAME": "STARLINK-34767", "OBJECT_ID": "2025-263Y", "EPOCH": "2025-12-04T18:00:02.000160", "MEAN_MOTION": 15.66052273, "ECCENTRICITY": 0.0001287, "INCLINATION": 42.9987, "RA_OF_ASC_NODE": 172.0394, "ARG_OF_PERICENTER": 264.2679, "MEAN_ANOMALY": 305.7885, "EPHEMERIS_TYPE": 0, "CLASSIFICATION_TYPE": "U", "NORAD_CAT_ID": 66507, "ELEMENT_SET_NO": 999, "REV_AT_EPOCH": 435, "BSTAR": -0.021967, "MEAN_MOTION_DOT": -0.02032331, "MEAN_MOTION_DDOT": 0}, "tle": {"line1": "1 66507U 25263Y   25338.75002315 -.02032331  00000+0 -21967-1 0  9997", "line2": "2 66507  42.9987 172.0394 0001287 264.2679 305.7885 15.66052273  4350"}}, "geometry": {"type": "Point", "coordinates": [-108.27341195430107, 42.73950222708181]}}, {"type": "Feature", "properties": {"norad_id": 66508, "name": "STARLINK-35608", "group": "last-30-days", "lat": 42.97711951120724, "lon": -100.4378718705113, "alt_km": 370.9485405526748, "timestamp": "2025-12-05T05:43:13.896587+00:00", "meta": {"OBJECT_NAME": "STARLINK-35608", "OBJECT_ID": "2025-263Z", "EPOCH": "2025-12-04T18:00:02.000160", "MEAN_MOTION": 15.66051767, "ECCENTRICITY": 0.000139, "INCLINATION": 42.9987, "RA_OF_ASC_NODE": 172.0259, "ARG_OF_PERICENTER": 263.5243, "MEAN_ANOMALY": 312.2825, "EPHEMERIS_TYPE": 0, "CLASSIFICATION_TYPE": "U", "NORAD_CAT_ID": 66508, "ELEMENT_SET_NO": 999, "REV_AT_EPOCH": 435, "BSTAR": -0.021951, "MEAN_MOTION_DOT": -0.02031062, "MEAN_MOTION_DDOT": 0}, "tle": {"line1": "1 66508U 25263Z   25338.75002315 -.02031062  00000+0 -21951-1 0  9991", "line2": "2 66508  42.9987 172.0259 0001390 263.5243 312.2825 15.66051767  4359"}}, "geometry": {"type": "Point", "coordinates": [-100.4378718705113, 42.97711951120724]}}, {"type": "Feature", "properties": {"norad_id": 66509, "name": "STARLINK-35598", "group": "last-30-days", "lat": 42.45940312996615, "lon": -90.0279874535751, "alt_km": 370.9580197962723, "timestamp": "2025-12-05T05:43:13.896599+00:00", "meta": {"OBJECT_NAME": "STARLINK-35598", "OBJECT_ID": "2025-263AA", "EPOCH": "2025-12-04T18:00:02.000160", "MEAN_MOTION": 15.66050644, "ECCENTRICITY": 0.0001327, "INCLINATION": 42.9987, "RA_OF_ASC_NODE": 172.0046, "ARG_OF_PERICENTER": 261.7411, "MEAN_ANOMALY": 321.7353, "EPHEMERIS_TYPE": 0, "CLASSIFICATION_TYPE": "U", "NORAD_CAT_ID": 66509, "ELEMENT_SET_NO": 999, "REV_AT_EPOCH": 435, "BSTAR": -0.021936, "MEAN_MOTION_DOT": -0.02029753, "MEAN_MOTION_DDOT": 0}, "tle": {"line1": "1 66509U 25263AA  25338.75002315 -.02029753  00000+0 -21936-1 0  9999", "line2": "2 66509  42.9987 172.0046 0001327 261.7411 321.7353 15.66050644  4355"}}, "geometry": {"type": "Point", "coordinates": [-90.0279874535751, 42.45940312996615]}}]}